{"type": "FeatureCollection", "features": [ {"type": "Feature", "properties": {"norad_id": 66623, "name": "STARLINK-35920", "group": "last-30-days", "lat": 35.87520723574622, "lon": 15.037963389875836, "alt_km": 320.3634741971455, "timestamp": "2025-12-04T10:51:48.877508+00:00", "meta": {"OBJECT_NAME": "STARLINK-35920", "OBJECT_ID": "2025-271G", "EPOCH": "2025-12-04T04:14:24.064224", "MEAN_MOTION": 15.82245482, "ECCENTRICITY": 3.54e-05, "INCLINATION": 53.1568, "RA_OF_ASC_NODE": 229.2635, "ARG_OF_PERICENTER": 145.4991, "MEAN_ANOMALY": 214.6055, "EPHEMERIS_TYPE": 0, "CLASSIFICATION_TYPE": "U", "NORAD_CAT_ID": 66623, "ELEMENT_SET_NO": 999, "REV_AT_EPOCH": 286, "BSTAR": -0.0034207, "MEAN_MOTION_DOT": -0.00667428, "MEAN_MOTION_DDOT": 0}, "tle": {"line1": "1 66623U 25271G   25338.17666741 -.00667428  00000+0 -34207-2 0  9991", "line2": "2 66623  53.1568 229.2635 0000354 145.4991 214.6055 15.82245482  2867"}}, "geometry": {"type": "Point", "coordinates": [15.037963389875836, 35.87520723574622]}}, {"type": "Feature", "properties": {"norad_id": 66624, "name": "STARLINK-35927", "group": "last-30-days", "lat": 36.99935573211403, "lon": 13.476675252756056, "alt_km": 319.7644048561433, "timestamp": "2025-12-04T10:51:48.877520+00:00", "meta": {"OBJECT_NAME": "STARLINK-35927", "OBJECT_ID": "2025-271H", "EPOCH": "2025-12-04T02:43:56.947584", "MEAN_MOTION": 15.82498487, "ECCENTRICITY": 8.67e-05, "INCLINATION": 53.1569, "RA_OF_ASC_NODE": 229.5824, "ARG_OF_PERICENTER": 20.6684, "MEAN_ANOMALY": 339.4374, "EPHEMERIS_TYPE": 0, "CLASSIFICATION_TYPE": "U", "NORAD_CAT_ID": 66624, "ELEMENT_SET_NO": 999, "REV_AT_EPOCH": 285, "BSTAR": -0.0023403, "MEAN_MOTION_DOT": -0.00472738, "MEAN_MOTION_DDOT": 0}, "tle": {"line1": "1 66624U 25271H   25338.11385356 -.00472738  00000+0 -23403-2 0  9990", "line2": "2 66624  53.1569 229.5824 0000867  20.6684 339.4374 15.82498487  2858"}}, "geometry": {"type": "Point", "coordinates": [13.476675252756056, 36.99935573211403]}}, {"type": "Feature", "properties": {"norad_id": 66625, "name": "STARLINK-35929", "group": "last-30-days", "lat": 34.73434191640958, "lon": 16.55117951218653, "alt_km": 323.2432341383919, "timestamp": "2025-12-04T10:51:48.877532+00:00", "meta": {"OBJECT_NAME": "STARLINK-35929", "OBJECT_ID": "2025-271J", "EPOCH": "2025-12-04T00:00:02.000160", "MEAN_MOTION": 15.82392497, "ECCENTRICITY": 7.14e-05, "INCLINATION": 53.1569, "RA_OF_ASC_NODE": 230.1461, "ARG_OF_PERICENTER": 80.9597, "MEAN_ANOMALY": 354.8798, "EPHEMERIS_TYPE": 0, "CLASSIFICATION_TYPE": "U", "NORAD_CAT_ID": 66625, "ELEMENT_SET_NO": 999, "REV_AT_EPOCH": 284, "BSTAR": -0.0083054, "MEAN_MOTION_DOT": -0.01546605, "MEAN_MOTION_DDOT": 0}, "tle": {"line1": "1 66625U 25271J   25338.00002315 -.01546605  00000+0 -83054-2 0  9994", "line2": "2 66625  53.1569 230.1461 0000714  80.9597 354.8798 15.82392497  2841"}}, "geometry": {"type": "Point", "coordinates": [16.55117951218653, 34.73434191640958]}}, {"type": "Feature", "properties": {"norad_id": 66626, "name": "STARLINK-35902", "group": "last-30-days", "lat": 32.225943293934684, "lon": 19.659394139325688, "alt_km": 319.00473251695166, "timestamp": "2025-12-04T10:51:48.877542+00:00", "meta": {"OBJECT_NAME": "STARLINK-35902", "OBJECT_ID": "2025-271K", "EPOCH": "2025-12-04T04:13:08.553216", "MEAN_MOTION": 15.82426244, "ECCENTRICITY": 0.0001514, "INCLINATION": 53.1568, "RA_OF_ASC_NODE": 229.2578, "ARG_OF_PERICENTER": 157.2363, "MEAN_ANOMALY": 202.8728, "EPHEMERIS_TYPE": 0, "CLASSIFICATION_TYPE": "U", "NORAD_CAT_ID": 66626, "ELEMENT_SET_NO": 999, "REV_AT_EPOCH": 286, "BSTAR": -0.0012015, "MEAN_MOTION_DOT": -0.00248489, "MEAN_MOTION_DDOT": 0}, "tle": {"line1": "1 66626U 25271K   25338.17579344 -.00248489  00000+0 -12015-2 0  9991", "line2": "2 66626  53.1568 229.2578 0001514 157.2363 202.8728 15.82426244  2862"}}, "geometry": {"type": "Point", "coordinates": [19.659394139325688, 32.225943293934684]}}, {"type": "Feature", "properties": {"norad_id": 66627, "name": "STARLINK-35904", "group": "last-30-days", "lat": 30.543824422880828, "lon": 21.600861363193143, "alt_km": 319.5518397209471, "timestamp": "2025-12-04T10:51:48.877553+00:00", "meta": {"OBJECT_NAME": "STARLINK-35904", "OBJECT_ID": "2025-271L", "EPOCH": "2025-12-04T04:12:31.249152", "MEAN_MOTION": 15.82345962, "ECCENTRICITY": 0.0001595, "INCLINATION": 53.1566, "RA_OF_ASC_NODE": 229.2546, "ARG_OF_PERICENTER": 159.0919, "MEAN_ANOMALY": 201.017, "EPHEMERIS_TYPE": 0, "CLASSIFICATION_TYPE": "U", "NORAD_CAT_ID": 66627, "ELEMENT_SET_NO": 999, "REV_AT_EPOCH": 282, "BSTAR": -0.0015279, "MEAN_MOTION_DOT": -0.00312353, "MEAN_MOTION_DDOT": 0}, "tle": {"line1": "1 66627U 25271L   25338.17536168 -.00312353  00000+0 -15279-2 0  9996", "line2": "2 66627  53.1566 229.2546 0001595 159.0919 201.0170 15.82345962  2827"}}, "geometry": {"type": "Point", "coordinates": [21.600861363193143, 30.543824422880828]}}, {"type": "Feature", "properties": {"norad_id": 66628, "name": "STARLINK-35862", "group": "last-30-days", "lat": 29.758003677639902, "lon": 22.4744803098596, "alt_km": 324.3857805322732, "timestamp": "2025-12-04T10:51:48.877563+00:00", "meta": {"OBJECT_NAME": "STARLINK-35862", "OBJECT_ID": "2025-271M", "EPOCH": "2025-12-04T00:00:02.000160", "MEAN_MOTION": 15.82349724, "ECCENTRICITY": 7.07e-05, "INCLINATION": 53.1566, "RA_OF_ASC_NODE": 230.1311, "ARG_OF_PERICENTER": 85.1962, "MEAN_ANOMALY": 357.8277, "EPHEMERIS_TYPE": 0, "CLASSIFICATION_TYPE": "U", "NORAD_CAT_ID": 66628, "ELEMENT_SET_NO": 999, "REV_AT_EPOCH": 284, "BSTAR": -0.0087005, "MEAN_MOTION_DOT": -0.01607848, "MEAN_MOTION_DDOT": 0}, "tle": {"line1": "1 66628U 25271M   25338.00002315 -.01607848  00000+0 -87005-2 0  9994", "line2": "2 66628  53.1566 230.1311 0000707  85.1962 357.8277 15.82349724  2840"}}, "geometry": {"type": "Point", "coordinates": [22.4744803098596, 29.758003677639902]}}, {"type": "Feature", "properties": {"norad_id": 66629, "name": "STARLINK-35956", "group": "last-30-days", "lat": 27.18911663735005, "lon": 25.19779771693706, "alt_km": 320.36997047989007, "timestamp": "2025-12-04T10:51:48.877573+00:00", "meta": {"OBJECT_NAME": "STARLINK-35956", "OBJECT_ID": "2025-271N", "EPOCH": "2025-12-04T04:11:21.728256", "MEAN_MOTION": 15.82342938, "ECCENTRICITY": 0.0001055, "INCLINATION": 53.1565, "RA_OF_ASC_NODE": 229.2499, "ARG_OF_PERICENTER": 138.0827, "MEAN_ANOMALY": 222.0277, "EPHEMERIS_TYPE": 0, "CLASSIFICATION_TYPE": "U", "NORAD_CAT_ID": 66629, "ELEMENT_SET_NO": 999, "REV_AT_EPOCH": 286, "BSTAR": -0.0013633, "MEAN_MOTION_DOT": -0.0027973, "MEAN_MOTION_DDOT": 0}, "tle": {"line1": "1 66629U 25271N   25338.17455704 -.00279730  00000+0 -13633-2 0  9997", "line2": "2 66629  53.1565 229.2499 0001055 138.0827 222.0277 15.82342938  2866"}}, "geometry": {"type": "Point", "coordinates": [25.19779771693706, 27.18911663735005]}}, {"type": "Feature", "properties": {"norad_id": 66630, "name": "STARLINK-35949", "group": "last-30-days", "lat": 25.913862629954803, "lon": 26.480386612383754, "alt_km": 322.12181948042326, "timestamp": "2025-12-04T10:51:48.877583+00:00", "meta": {"OBJECT_NAME": "STARLINK-35949", "OBJECT_ID": "2025-271P", "EPOCH": "2025-12-04T04:10:50.193984", "MEAN_MOTION": 15.82120498, "ECCENTRICITY": 8.39e-05, "INCLINATION": 53.1563, "RA_OF_ASC_NODE": 229.2447, "ARG_OF_PERICENTER": 170.6966, "MEAN_ANOMALY": 189.4073, "EPHEMERIS_TYPE": 0, "CLASSIFICATION_TYPE": "U", "NORAD_CAT_ID": 66630, "ELEMENT_SET_NO": 999, "REV_AT_EPOCH": 286, "BSTAR": -0.0035659, "MEAN_MOTION_DOT": -0.00689961, "MEAN_MOTION_DDOT": 0}, "tle": {"line1": "1 66630U 25271P   25338.17419206 -.00689961  00000+0 -35659-2 0  9999", "line2": "2 66630  53.1563 229.2447 0000839 170.6966 189.4073 15.82120498  2869"}}, "geometry": {"type": "Point", "coordinates": [26.480386612383754, 25.913862629954803]}}, {"type": "Feature", "properties": {"norad_id": 66631, "name": "STARLINK-35965", "group": "last-30-days", "lat": 24.04733943128105, "lon": 28.294859945750936, "alt_km": 322.1640946048283, "timestamp": "2025-12-04T10:51:48.877595+00:00", "meta": {"OBJECT_NAME": "STARLINK-35965", "OBJECT_ID": "2025-271Q", "EPOCH": "2025-12-04T02:39:22.198176", "MEAN_MOTION": 15.8248327, "ECCENTRICITY": 0.0001063, "INCLINATION": 53.1564, "RA_OF_ASC_NODE": 229.5608, "ARG_OF_PERICENTER": 336.6012, "MEAN_ANOMALY": 23.4963, "EPHEMERIS_TYPE": 0, "CLASSIFICATION_TYPE": "U", "NORAD_CAT_ID": 66631, "ELEMENT_SET_NO": 999, "REV_AT_EPOCH": 285, "BSTAR": -0.0017583, "MEAN_MOTION_DOT": -0.00359688, "MEAN_MOTION_DDOT": 0}, "tle": {"line1": "1 66631U 25271Q   25338.11067359 -.00359688  00000+0 -17583-2 0  9998", "line2": "2 66631  53.1564 229.5608 0001063 336.6012  23.4963 15.82483270  2853"}}, "geometry": {"type": "Point", "coordinates": [28.294859945750936, 24.04733943128105]}}, {"type": "Feature", "properties": {"norad_id": 66632, "name": "STARLINK-35973", "group": "last-30-days", "lat": 22.77844109939505, "lon": 29.48489156569638, "alt_km": 323.04390507099924, "timestamp": "2025-12-04T10:51:48.877606+00:00", "meta": {"OBJECT_NAME": "STARLINK-35973", "OBJECT_ID": "2025-271R", "EPOCH": "2025-12-04T04:09:46.681344", "MEAN_MOTION": 15.82103894, "ECCENTRICITY": 3.04e-05, "INCLINATION": 53.1561, "RA_OF_ASC_NODE": 229.2399, "ARG_OF_PERICENTER": 162.5737, "MEAN_ANOMALY": 197.5297, "EPHEMERIS_TYPE": 0, "CLASSIFICATION_TYPE": "U", "NORAD_CAT_ID": 66632, "ELEMENT_SET_NO": 999, "REV_AT_EPOCH": 282, "BSTAR": -0.0037682, "MEAN_MOTION_DOT": -0.00725422, "MEAN_MOTION_DDOT": 0}, "tle": {"line1": "1 66632U 25271R   25338.17345696 -.00725422  00000+0 -37682-2 0  9993", "line2": "2 66632  53.1561 229.2399 0000304 162.5737 197.5297 15.82103894  2823"}}, "geometry": {"type": "Point", "coordinates": [29.48489156569638, 22.77844109939505]}}]}